[
    {
        "Altitude(m)": 604234.600913715,
        "Argument of Periapsis(deg)": 0.0,
        "Eccentricity": 0.0,
        "Inclination(deg)": 60.0,
        "Latitude(deg)": 14.117188340502429,
        "Longitude(deg)": -153.27264571960797,
        "Mean Anomaly(deg)": 163.6364,
        "RAAN(deg)": 135.0,
        "Satellite Name": "Test1 604",
        "Satellite Number": 604,
        "Semi-Major Axis(m)": 6980739.136638005,
        "Time(s)": 0
    },
    {
        "Altitude(m)": 604223.4296815889,
        "Argument of Periapsis(deg)": 0.00010418945913296404,
        "Eccentricity": 0.0,
        "Inclination(deg)": 60.0,
        "Latitude(deg)": 13.582324164448663,
        "Longitude(deg)": -152.9857376615845,
        "Mean Anomaly(deg)": 164.25650614546183,
        "RAAN(deg)": 134.99957995086024,
        "Satellite Name": "Test1 604",
        "Satellite Number": 604,
        "Semi-Major Axis(m)": 6980739.136638005,
        "Time(s)": 10
    }
]